{"type": "FeatureCollection", "features": [{"type": "Feature", "properties": {"norad_id": 22675, "name": "COSMOS 2251", "group": "cosmos-2251-debris", "lat": 21.757139383463233, "lon": -54.92050586547079, "alt_km": 763.0774232988297, "timestamp": "2025-12-22T05:49:03.893569+00:00", "meta": {"OBJECT_NAME": "COSMOS 2251", "OBJECT_ID": "1993-036A", "EPOCH": "2025-12-21T19:39:40.944960", "MEAN_MOTION": 14.33207193, "ECCENTRICITY": 0.0024331, "INCLINATION": 74.04, "RA_OF_ASC_NODE": 299.2941, "ARG_OF_PERICENTER": 19.0527, "MEAN_ANOMALY": 341.1529, "EPHEMERIS_TYPE": 0, "CLASSIFICATION_TYPE": "U", "NORAD_CAT_ID": 22675, "ELEMENT_SET_NO": 999, "REV_AT_EPOCH": 69903, "BSTAR": 3.9631e-05, "MEAN_MOTION_DOT": 8.3e-07, "MEAN_MOTION_DDOT": 0}, "tle": {"line1": "1 22675U 93036A   25355.81922390  .00000083  00000+0  39631-4 0  9993", "line2": "2 22675  74.0400 299.2941 0024331  19.0527 341.1529 14.33207193699037"}}, "geometry": {"type": "Point", "coordinates": [-54.92050586547079, 21.757139383463233]}}, {"type": "Feature", "properties": {"norad_id": 33757, "name": "COSMOS 2251 DEB", "group": "cosmos-2251-debris", "lat": 38.49165287192324, "lon": -40.58188090736317, "alt_km": 778.3869087219146, "timestamp": "2025-12-22T05:49:03.893593+00:00", "meta": {"OBJECT_NAME": "COSMOS 2251 DEB", "OBJECT_ID": "1993-036E", "EPOCH": "2025-12-21T19:39:00.368064", "MEAN_MOTION": 14.32583167, "ECCENTRICITY": 0.0015564, "INCLINATION": 74.0374, "RA_OF_ASC_NODE": 307.0351, "ARG_OF_PERICENTER": 318.865, "MEAN_ANOMALY": 57.3618, "EPHEMERIS_TYPE": 0, "CLASSIFICATION_TYPE": "U", "NORAD_CAT_ID": 33757, "ELEMENT_SET_NO": 999, "REV_AT_EPOCH": 88126, "BSTAR": 3.6661e-05, "MEAN_MOTION_DOT": 7.3e-07, "MEAN_MOTION_DDOT": 0}, "tle": {"line1": "1 33757U 93036E   25355.81875426  .00000073  00000+0  36661-4 0  9992", "line2": "2 33757  74.0374 307.0351 0015564 318.8650  57.3618 14.32583167881268"}}, "geometry": {"type": "Point", "coordinates": [-40.58188090736317, 38.49165287192324]}}, {"type": "Feature", "properties": {"norad_id": 33758, "name": "COSMOS 2251 DEB", "group": "cosmos-2251-debris", "lat": -72.78676323642271, "lon": 129.52718740973702, "alt_km": 715.3581120488152, "timestamp": "2025-12-22T05:49:03.893608+00:00", "meta": {"OBJECT_NAME": "COSMOS 2251 DEB", "OBJECT_ID": "1993-036F", "EPOCH": "2025-12-21T17:20:47.504256", "MEAN_MOTION": 14.51641715, "ECCENTRICITY": 0.0017195, "INCLINATION": 74.0263, "RA_OF_ASC_NODE": 198.1094, "ARG_OF_PERICENTER": 264.2315, "MEAN_ANOMALY": 177.7551, "EPHEMERIS_TYPE": 0, "CLASSIFICATION_TYPE": "U", "NORAD_CAT_ID": 33758, "ELEMENT_SET_NO": 999, "REV_AT_EPOCH": 88435, "BSTAR": 0.00056145, "MEAN_MOTION_DOT": 2.228e-05, "MEAN_MOTION_DDOT": 0}, "tle": {"line1": "1 33758U 93036F   25355.72277204  .00002228  00000+0  56145-3 0  9995", "line2": "2 33758  74.0263 198.1094 0017195 264.2315 177.7551 14.51641715884354"}}, "geometry": {"type": "Point", "coordinates": [129.52718740973702, -72.78676323642271]}}, {"type": "Feature", "properties": {"norad_id": 33760, "name": "COSMOS 2251 DEB", "group": "cosmos-2251-debris", "lat": 31.8531994999858, "lon": -85.73565375016281, "alt_km": 758.5016215644528, "timestamp": "2025-12-22T05:49:03.893620+00:00", "meta": {"OBJECT_NAME": "COSMOS 2251 DEB", "OBJECT_ID": "1993-036H", "EPOCH": "2025-12-21T18:15:51.725376", "MEAN_MOTION": 14.35678222, "ECCENTRICITY": 0.0020261, "INCLINATION": 74.0321, "RA_OF_ASC_NODE": 264.9002, "ARG_OF_PERICENTER": 1.0639, "MEAN_ANOMALY": 65.1543, "EPHEMERIS_TYPE": 0, "CLASSIFICATION_TYPE": "U", "NORAD_CAT_ID": 33760, "ELEMENT_SET_NO": 999, "REV_AT_EPOCH": 88254, "BSTAR": 8.7405e-05, "MEAN_MOTION_DOT": 2.27e-06, "MEAN_MOTION_DDOT": 0}, "tle": {"line1": "1 33760U 93036H   25355.76101534  .00000227  00000+0  87405-4 0  9995", "line2": "2 33760  74.0321 264.9002 0020261   1.0639  65.1543 14.35678222882542"}}, "geometry": {"type": "Point", "coordinates": [-85.73565375016281, 31.8531994999858]}}, {"type": "Feature", "properties": {"norad_id": 33761, "name": "COSMOS 2251 DEB", "group": "cosmos-2251-debris", "lat": -16.474834669263128, "lon": 59.38895508743871, "alt_km": 761.8443424867437, "timestamp": "2025-12-22T05:49:03.893632+00:00", "meta": {"OBJECT_NAME": "COSMOS 2251 DEB", "OBJECT_ID": "1993-036J", "EPOCH": "2025-12-21T17:30:54.434880", "MEAN_MOTION": 14.42568283, "ECCENTRICITY": 0.0023269, "INCLINATION": 74.0352, "RA_OF_ASC_NODE": 235.4833, "ARG_OF_PERICENTER": 314.4591, "MEAN_ANOMALY": 101.7921, "EPHEMERIS_TYPE": 0, "CLASSIFICATION_TYPE": "U", "NORAD_CAT_ID": 33761, "ELEMENT_SET_NO": 999, "REV_AT_EPOCH": 88364, "BSTAR": 0.00030141, "MEAN_MOTION_DOT": 9.77e-06, "MEAN_MOTION_DDOT": 0}, "tle": {"line1": "1 33761U 93036J   25355.72979670  .00000977  00000+0  30141-3 0  9992", "line2": "2 33761  74.0352 235.4833 0023269 314.4591 101.7921 14.42568283883643"}}, "geometry": {"type": "Point", "coordinates": [59.38895508743871, -16.474834669263128]}}, {"type": "Feature", "properties": {"norad_id": 33762, "name": "COSMOS 2251 DEB", "group": "cosmos-2251-debris", "lat": -72.322164602242, "lon": 176.5212271664646, "alt_km": 786.3415526445315, "timestamp": "2025-12-22T05:49:03.893643+00:00", "meta": {"OBJECT_NAME": "COSMOS 2251 DEB", "OBJECT_ID": "1993-036K", "EPOCH": "2025-12-21T20:32:03.066720", "MEAN_MOTION": 14.33666291, "ECCENTRICITY": 0.0015384, "INCLINATION": 74.0421, "RA_OF_ASC_NODE": 293.3606, "ARG_OF_PERICENTER": 352.6076, "MEAN_ANOMALY": 74.2372, "EPHEMERIS_TYPE": 0, "CLASSIFICATION_TYPE": "U", "NORAD_CAT_ID": 33762, "ELEMENT_SET_NO": 999, "REV_AT_EPOCH": 88178, "BSTAR": 4.0698e-05, "MEAN_MOTION_DOT": 8.7e-07, "MEAN_MOTION_DDOT": 0}, "tle": {"line1": "1 33762U 93036K   25355.85559105  .00000087  00000+0  40698-4 0  9995", "line2": "2 33762  74.0421 293.3606 0015384 352.6076  74.2372 14.33666291881788"}}, "geometry": {"type": "Point", "coordinates": [176.5212271664646, -72.322164602242]}}, {"type": "Feature", "properties": {"norad_id": 33764, "name": "COSMOS 2251 DEB", "group": "cosmos-2251-debris", "lat": -58.56874449034459, "lon": 103.04501181089532, "alt_km": 751.394240608075, "timestamp": "2025-12-22T05:49:03.893654+00:00", "meta": {"OBJECT_NAME": "COSMOS 2251 DEB", "OBJECT_ID": "1993-036M", "EPOCH": "2025-12-21T17:10:39.185184", "MEAN_MOTION": 14.39527522, "ECCENTRICITY": 0.0023537, "INCLINATION": 74.0334, "RA_OF_ASC_NODE": 256.0828, "ARG_OF_PERICENTER": 220.154, "MEAN_ANOMALY": 173.9612, "EPHEMERIS_TYPE": 0, "CLASSIFICATION_TYPE": "U", "NORAD_CAT_ID": 33764, "ELEMENT_SET_NO": 999, "REV_AT_EPOCH": 88286, "BSTAR": 0.00023894, "MEAN_MOTION_DOT": 7.21e-06, "MEAN_MOTION_DDOT": 0}, "tle": {"line1": "1 33764U 93036M   25355.71573131  .00000721  00000+0  23894-3 0  9990", "line2": "2 33764  74.0334 256.0828 0023537 220.1540 173.9612 14.39527522882862"}}, "geometry": {"type": "Point", "coordinates": [103.04501181089532, -58.56874449034459]}}, {"type": "Feature", "properties": {"norad_id": 33765, "name": "COSMOS 2251 DEB", "group": "cosmos-2251-debris", "lat": -29.278197018103754, "lon": 144.19676309299342, "alt_km": 536.6447087083079, "timestamp": "2025-12-22T05:49:03.893665+00:00", "meta": {"OBJECT_NAME": "COSMOS 2251 DEB", "OBJECT_ID": "1993-036N", "EPOCH": "2025-12-21T12:45:57.813696", "MEAN_MOTION": 15.10439546, "ECCENTRICITY": 0.00649968, "INCLINATION": 74.0083, "RA_OF_ASC_NODE": 154.9192, "ARG_OF_PERICENTER": 245.5497, "MEAN_ANOMALY": 181.5198, "EPHEMERIS_TYPE": 0, "CLASSIFICATION_TYPE": "U", "NORAD_CAT_ID": 33765, "ELEMENT_SET_NO": 999, "REV_AT_EPOCH": 89751, "BSTAR": 0.0013334963, "MEAN_MOTION_DOT": 0.00023096, "MEAN_MOTION_DDOT": 0}, "tle": {"line1": "1 33765U 93036N   25355.53191914  .00023096  00000+0  13335-2 0  9994", "line2": "2 33765  74.0083 154.9192 0064996 245.5497 181.5198 15.10439546897510"}}, "geometry": {"type": "Point", "coordinates": [144.19676309299342, -29.278197018103754]}}, {"type": "Feature", "properties": {"norad_id": 33766, "name": "COSMOS 2251 DEB", "group": "cosmos-2251-debris", "lat": 49.77571912332722, "lon": -81.85523874170238, "alt_km": 815.6832125535147, "timestamp": "2025-12-22T05:49:03.893676+00:00", "meta": {"OBJECT_NAME": "COSMOS 2251 DEB", "OBJECT_ID": "1993-036P", "EPOCH": "2025-12-21T19:11:07.143936", "MEAN_MOTION": 14.34958417, "ECCENTRICITY": 0.0064629, "INCLINATION": 74.1858, "RA_OF_ASC_NODE": 118.5274, "ARG_OF_PERICENTER": 319.4117, "MEAN_ANOMALY": 40.2226, "EPHEMERIS_TYPE": 0, "CLASSIFICATION_TYPE": "U", "NORAD_CAT_ID": 33766, "ELEMENT_SET_NO": 999, "REV_AT_EPOCH": 87875, "BSTAR": 0.00041231, "MEAN_MOTION_DOT": 1.176e-05, "MEAN_MOTION_DDOT": 0}, "tle": {"line1": "1 33766U 93036P   25355.79938824  .00001176  00000+0  41231-3 0  9994", "line2": "2 33766  74.1858 118.5274 0064629 319.4117  40.2226 14.34958417878758"}}, "geometry": {"type": "Point", "coordinates": [-81.85523874170238, 49.77571912332722]}}, {"type": "Feature", "properties": {"norad_id": 33768, "name": "COSMOS 2251 DEB", "group": "cosmos-2251-debris", "lat": -40.105255702175455, "lon": -169.38987878544356, "alt_km": 841.3414803356009, "timestamp": "2025-12-22T05:49:03.893686+00:00", "meta": {"OBJECT_NAME": "COSMOS 2251 DEB", "OBJECT_ID": "1993-036R", "EPOCH": "2025-12-21T17:58:43.775328", "MEAN_MOTION": 13.58462214, "ECCENTRICITY": 0.0366738, "INCLINATION": 74.0666, "RA_OF_ASC_NODE": 205.3276, "ARG_OF_PERICENTER": 1.1074, "MEAN_ANOMALY": 68.1779, "EPHEMERIS_TYPE": 0, "CLASSIFICATION_TYPE": "U", "NORAD_CAT_ID": 33768, "ELEMENT_SET_NO": 999, "REV_AT_EPOCH": 83418, "BSTAR": 0.00027479, "MEAN_MOTION_DOT": 2.89e-06, "MEAN_MOTION_DDOT": 0}, "tle": {"line1": "1 33768U 93036R   25355.74911777  .00000289  00000+0  27479-3 0  9991", "line2": "2 33768  74.0666 205.3276 0366738   1.1074  68.1779 13.58462214834187"}}, "geometry": {"type": "Point", "coordinates": [-169.38987878544356, -40.105255702175455]}}]}